GREENCUBE (IO-117)      
1 53109U 22080E   26066.08680293 -.00000003  00000+0  00000+0 0  9998
2 53109  70.1628 333.7587 0009014 311.8097  48.1792  6.42583094 85503
UMKA 1 (RS40S)          
1 57172U 23091G   26066.13570074  .00007673  00000+0  36311-3 0  9993
2 57172  97.5179 125.2522 0014624 113.9239 246.3529 15.19547435148509
CUBESX-HSE 3 (RS42S)    
1 57178U 23091N   26066.20710198  .00016951  00000+0  61164-3 0  9993
2 57178  97.5208 130.6522 0012750  94.9425 265.3270 15.28505631148833
MONITOR-3 (RS58S)       
1 57180U 23091Q   26066.22044116  .00013748  00000+0  54118-3 0  9990
2 57180  97.5203 129.0206 0013754  99.6754 260.6038 15.25658255148731
MONITOR-4 (RS57S)       
1 57182U 23091S   26066.20570618  .00014922  00000+0  58560-3 0  9991
2 57182  97.5196 128.9705 0013685 100.0295 260.2488 15.25743401148739
MONITOR-2 (RS39S)       
1 57184U 23091U   26066.16810122  .00007988  00000+0  39665-3 0  9994
2 57184  97.5204 125.1190 0012982 106.6277 253.6383 15.17876473148477
SVYATOBOR 1 (RS60S)     
1 57187U 23091X   26066.20637697  .00013683  00000+0  55401-3 0  9991
2 57187  97.5208 129.5381 0011228  92.7065 267.5458 15.24744615148765
VIZARD-METEO (RS38S)    
1 57189U 23091Z   26066.21711272  .00021818  00000+0  69288-3 0  9993
2 57189  97.5196 133.8654 0008859  79.9421 280.2820 15.32633345149057
NANOZOND 1 (RS49S)      
1 57190U 23091AA  26063.78486012  .00233103  00000+0  17099-2 0  9999
2 57190  97.5090 143.6448 0000456  27.7219 332.4068 15.72447637149508
POLYTECH-UNIVERSE 3 (R*)
1 57191U 23091AB  26066.20841125  .00006578  00000+0  32508-3 0  9997
2 57191  97.5178 124.6661 0017306 121.9655 238.3264 15.18057864148471
UTMN 2 (RS27S)          
1 57203U 23091AP  26066.21681875  .00016843  00000+0  59219-3 0  9990
2 57203  97.5199 132.1701 0009825  84.2325 276.0035 15.29389516148940
KUZGTU 1 (RS47S)        
1 57217U 23091AV  26066.18107390  .00016005  00000+0  59774-3 0  9992
2 57217  97.5184 129.7490 0012979  97.8936 262.3776 15.27381100148790
SONATE-2                
1 59112U 24043Q   26066.14361507  .00044974  00000+0  76933-3 0  9996
2 59112  97.5393 210.9504 0007872 214.2872 145.7873 15.51104913112039
MESAT1                  
1 60209U 24125G   26066.05920344  .00049810  00000+0  78606-3 0  9999
2 60209  97.2454 281.8770 0011287 232.9626 127.0596 15.53299441 93669
OOV-CUBE (TUBSAT-30)    
1 60240U 24128F   26065.83391448  .00005102  00000+0  38847-3 0  9998
2 60240  61.9944 222.3349 0054710 111.7529 248.9397 15.02225111 90736
COLIBRI-S (RS67S)       
1 61746U 24199M   26066.15600061  .00025760  00000+0  57880-3 0  9998
2 61746  97.3159 299.3057 0007747 296.5403  63.5050 15.43303720121651
