[{"OBJECT_NAME":"GREENCUBE (IO-117)","OBJECT_ID":"2022-080E","EPOCH":"2026-03-07T02:04:59.773152","MEAN_MOTION":6.42583094,"ECCENTRICITY":0.0009014,"INCLINATION":70.1628,"RA_OF_ASC_NODE":333.7587,"ARG_OF_PERICENTER":311.8097,"MEAN_ANOMALY":48.1792,"EPHEMERIS_TYPE":0,"CLASSIFICATION_TYPE":"U","NORAD_CAT_ID":53109,"ELEMENT_SET_NO":999,"REV_AT_EPOCH":8550,"BSTAR":0,"MEAN_MOTION_DOT":-3.0e-8,"MEAN_MOTION_DDOT":0},{"OBJECT_NAME":"UMKA 1 (RS40S)","OBJECT_ID":"2023-091G","EPOCH":"2026-03-07T03:15:24.543936","MEAN_MOTION":15.19547435,"ECCENTRICITY":0.0014624,"INCLINATION":97.5179,"RA_OF_ASC_NODE":125.2522,"ARG_OF_PERICENTER":113.9239,"MEAN_ANOMALY":246.3529,"EPHEMERIS_TYPE":0,"CLASSIFICATION_TYPE":"U","NORAD_CAT_ID":57172,"ELEMENT_SET_NO":999,"REV_AT_EPOCH":14850,"BSTAR":0.00036311,"MEAN_MOTION_DOT":7.673e-5,"MEAN_MOTION_DDOT":0},{"OBJECT_NAME":"CUBESX-HSE 3 (RS42S)","OBJECT_ID":"2023-091N","EPOCH":"2026-03-07T04:58:13.611072","MEAN_MOTION":15.28505631,"ECCENTRICITY":0.001275,"INCLINATION":97.5208,"RA_OF_ASC_NODE":130.6522,"ARG_OF_PERICENTER":94.9425,"MEAN_ANOMALY":265.327,"EPHEMERIS_TYPE":0,"CLASSIFICATION_TYPE":"U","NORAD_CAT_ID":57178,"ELEMENT_SET_NO":999,"REV_AT_EPOCH":14883,"BSTAR":0.00061164,"MEAN_MOTION_DOT":0.00016951,"MEAN_MOTION_DDOT":0},{"OBJECT_NAME":"MONITOR-3 (RS58S)","OBJECT_ID":"2023-091Q","EPOCH":"2026-03-07T05:17:26.116224","MEAN_MOTION":15.25658255,"ECCENTRICITY":0.0013754,"INCLINATION":97.5203,"RA_OF_ASC_NODE":129.0206,"ARG_OF_PERICENTER":99.6754,"MEAN_ANOMALY":260.6038,"EPHEMERIS_TYPE":0,"CLASSIFICATION_TYPE":"U","NORAD_CAT_ID":57180,"ELEMENT_SET_NO":999,"REV_AT_EPOCH":14873,"BSTAR":0.00054118,"MEAN_MOTION_DOT":0.00013748,"MEAN_MOTION_DDOT":0},{"OBJECT_NAME":"MONITOR-4 (RS57S)","OBJECT_ID":"2023-091S","EPOCH":"2026-03-07T04:56:13.013952","MEAN_MOTION":15.25743401,"ECCENTRICITY":0.0013685,"INCLINATION":97.5196,"RA_OF_ASC_NODE":128.9705,"ARG_OF_PERICENTER":100.0295,"MEAN_ANOMALY":260.2488,"EPHEMERIS_TYPE":0,"CLASSIFICATION_TYPE":"U","NORAD_CAT_ID":57182,"ELEMENT_SET_NO":999,"REV_AT_EPOCH":14873,"BSTAR":0.0005856,"MEAN_MOTION_DOT":0.00014922,"MEAN_MOTION_DDOT":0},{"OBJECT_NAME":"MONITOR-2 (RS39S)","OBJECT_ID":"2023-091U","EPOCH":"2026-03-07T04:02:03.945408","MEAN_MOTION":15.17876473,"ECCENTRICITY":0.0012982,"INCLINATION":97.5204,"RA_OF_ASC_NODE":125.119,"ARG_OF_PERICENTER":106.6277,"MEAN_ANOMALY":253.6383,"EPHEMERIS_TYPE":0,"CLASSIFICATION_TYPE":"U","NORAD_CAT_ID":57184,"ELEMENT_SET_NO":999,"REV_AT_EPOCH":14847,"BSTAR":0.00039665,"MEAN_MOTION_DOT":7.988e-5,"MEAN_MOTION_DDOT":0},{"OBJECT_NAME":"SVYATOBOR 1 (RS60S)","OBJECT_ID":"2023-091X","EPOCH":"2026-03-07T04:57:10.970208","MEAN_MOTION":15.24744615,"ECCENTRICITY":0.0011228,"INCLINATION":97.5208,"RA_OF_ASC_NODE":129.5381,"ARG_OF_PERICENTER":92.7065,"MEAN_ANOMALY":267.5458,"EPHEMERIS_TYPE":0,"CLASSIFICATION_TYPE":"U","NORAD_CAT_ID":57187,"ELEMENT_SET_NO":999,"REV_AT_EPOCH":14876,"BSTAR":0.00055401,"MEAN_MOTION_DOT":0.00013683,"MEAN_MOTION_DDOT":0},{"OBJECT_NAME":"VIZARD-METEO (RS38S)","OBJECT_ID":"2023-091Z","EPOCH":"2026-03-07T05:12:38.539008","MEAN_MOTION":15.32633345,"ECCENTRICITY":0.0008859,"INCLINATION":97.5196,"RA_OF_ASC_NODE":133.8654,"ARG_OF_PERICENTER":79.9421,"MEAN_ANOMALY":280.282,"EPHEMERIS_TYPE":0,"CLASSIFICATION_TYPE":"U","NORAD_CAT_ID":57189,"ELEMENT_SET_NO":999,"REV_AT_EPOCH":14905,"BSTAR":0.00069288,"MEAN_MOTION_DOT":0.00021818,"MEAN_MOTION_DDOT":0},{"OBJECT_NAME":"NANOZOND 1 (RS49S)","OBJECT_ID":"2023-091AA","EPOCH":"2026-03-04T18:50:11.914368","MEAN_MOTION":15.72447637,"ECCENTRICITY":4.56e-5,"INCLINATION":97.509,"RA_OF_ASC_NODE":143.6448,"ARG_OF_PERICENTER":27.7219,"MEAN_ANOMALY":332.4068,"EPHEMERIS_TYPE":0,"CLASSIFICATION_TYPE":"U","NORAD_CAT_ID":57190,"ELEMENT_SET_NO":999,"REV_AT_EPOCH":14950,"BSTAR":0.0017099321,"MEAN_MOTION_DOT":0.00233103,"MEAN_MOTION_DDOT":0},{"OBJECT_NAME":"POLYTECH-UNIVERSE 3 (RS46S)","OBJECT_ID":"2023-091AB","EPOCH":"2026-03-07T05:00:06.732000","MEAN_MOTION":15.18057864,"ECCENTRICITY":0.0017306,"INCLINATION":97.5178,"RA_OF_ASC_NODE":124.6661,"ARG_OF_PERICENTER":121.9655,"MEAN_ANOMALY":238.3264,"EPHEMERIS_TYPE":0,"CLASSIFICATION_TYPE":"U","NORAD_CAT_ID":57191,"ELEMENT_SET_NO":999,"REV_AT_EPOCH":14847,"BSTAR":0.00032508,"MEAN_MOTION_DOT":6.578e-5,"MEAN_MOTION_DDOT":0},{"OBJECT_NAME":"UTMN 2 (RS27S)","OBJECT_ID":"2023-091AP","EPOCH":"2026-03-07T05:12:13.140000","MEAN_MOTION":15.29389516,"ECCENTRICITY":0.0009825,"INCLINATION":97.5199,"RA_OF_ASC_NODE":132.1701,"ARG_OF_PERICENTER":84.2325,"MEAN_ANOMALY":276.0035,"EPHEMERIS_TYPE":0,"CLASSIFICATION_TYPE":"U","NORAD_CAT_ID":57203,"ELEMENT_SET_NO":999,"REV_AT_EPOCH":14894,"BSTAR":0.00059219,"MEAN_MOTION_DOT":0.00016843,"MEAN_MOTION_DDOT":0},{"OBJECT_NAME":"KUZGTU 1 (RS47S)","OBJECT_ID":"2023-091AV","EPOCH":"2026-03-07T04:20:44.784960","MEAN_MOTION":15.273811,"ECCENTRICITY":0.0012979,"INCLINATION":97.5184,"RA_OF_ASC_NODE":129.749,"ARG_OF_PERICENTER":97.8936,"MEAN_ANOMALY":262.3776,"EPHEMERIS_TYPE":0,"CLASSIFICATION_TYPE":"U","NORAD_CAT_ID":57217,"ELEMENT_SET_NO":999,"REV_AT_EPOCH":14879,"BSTAR":0.00059774,"MEAN_MOTION_DOT":0.00016005,"MEAN_MOTION_DDOT":0},{"OBJECT_NAME":"SONATE-2","OBJECT_ID":"2024-043Q","EPOCH":"2026-03-07T03:26:48.342048","MEAN_MOTION":15.51104913,"ECCENTRICITY":0.0007872,"INCLINATION":97.5393,"RA_OF_ASC_NODE":210.9504,"ARG_OF_PERICENTER":214.2872,"MEAN_ANOMALY":145.7873,"EPHEMERIS_TYPE":0,"CLASSIFICATION_TYPE":"U","NORAD_CAT_ID":59112,"ELEMENT_SET_NO":999,"REV_AT_EPOCH":11203,"BSTAR":0.00076933,"MEAN_MOTION_DOT":0.00044974,"MEAN_MOTION_DDOT":0},{"OBJECT_NAME":"MESAT1","OBJECT_ID":"2024-125G","EPOCH":"2026-03-07T01:25:15.177216","MEAN_MOTION":15.53299441,"ECCENTRICITY":0.0011287,"INCLINATION":97.2454,"RA_OF_ASC_NODE":281.877,"ARG_OF_PERICENTER":232.9626,"MEAN_ANOMALY":127.0596,"EPHEMERIS_TYPE":0,"CLASSIFICATION_TYPE":"U","NORAD_CAT_ID":60209,"ELEMENT_SET_NO":999,"REV_AT_EPOCH":9366,"BSTAR":0.00078606,"MEAN_MOTION_DOT":0.0004981,"MEAN_MOTION_DDOT":0},{"OBJECT_NAME":"OOV-CUBE (TUBSAT-30)","OBJECT_ID":"2024-128F","EPOCH":"2026-03-06T20:00:50.211072","MEAN_MOTION":15.02225111,"ECCENTRICITY":0.005471,"INCLINATION":61.9944,"RA_OF_ASC_NODE":222.3349,"ARG_OF_PERICENTER":111.7529,"MEAN_ANOMALY":248.9397,"EPHEMERIS_TYPE":0,"CLASSIFICATION_TYPE":"U","NORAD_CAT_ID":60240,"ELEMENT_SET_NO":999,"REV_AT_EPOCH":9073,"BSTAR":0.00038847,"MEAN_MOTION_DOT":5.102e-5,"MEAN_MOTION_DDOT":0},{"OBJECT_NAME":"COLIBRI-S (RS67S)","OBJECT_ID":"2024-199M","EPOCH":"2026-03-07T03:44:38.452704","MEAN_MOTION":15.4330372,"ECCENTRICITY":0.0007747,"INCLINATION":97.3159,"RA_OF_ASC_NODE":299.3057,"ARG_OF_PERICENTER":296.5403,"MEAN_ANOMALY":63.505,"EPHEMERIS_TYPE":0,"CLASSIFICATION_TYPE":"U","NORAD_CAT_ID":61746,"ELEMENT_SET_NO":999,"REV_AT_EPOCH":12165,"BSTAR":0.0005788,"MEAN_MOTION_DOT":0.0002576,"MEAN_MOTION_DDOT":0}]
